IRIDIUM 144             
1 43249U 18030A   25181.24841864  .00000026  00000+0  22463-5 0  9997
2 43249  86.3952  77.5438 0002145  82.2532 277.8907 14.34217821379692
IRIDIUM 149             
1 43250U 18030B   25181.25475962  .00000100  00000+0  28767-4 0  9997
2 43250  86.3951  77.5122 0002087  81.6687 278.4745 14.34218678379713
IRIDIUM 157             
1 43251U 18030C   25181.41332668 -.00000008  00000+0 -10047-4 0  9992
2 43251  86.3953  77.4911 0002135  90.9354 269.2087 14.34217406379714
IRIDIUM 140             
1 43252U 18030D   25181.22304842  .00000008  00000+0 -42072-5 0  9998
2 43252  86.3953  77.5842 0002125  79.1829 280.9606 14.34217638379741
IRIDIUM 145             
1 43253U 18030E   25181.41966818  .00000016  00000+0 -13912-5 0  9997
2 43253  86.3953  77.4747 0001809  74.8954 285.2442 14.34217709379705
IRIDIUM 146             
1 43254U 18030F   25181.47040915 -.00000015  00000+0 -12350-4 0  9999
2 43254  86.3953  77.4672 0001833  76.2001 283.9399 14.34217435379723
IRIDIUM 148             
1 43255U 18030G   25181.43869660 -.00000027  00000+0 -16841-4 0  9994
2 43255  86.3955  77.5182 0001924  86.7157 273.4259 14.34217301379756
IRIDIUM 142             
1 43256U 18030H   25181.61628828 -.00000015  00000+0 -12472-4 0  9997
2 43256  86.3950  77.3455 0001665  74.2032 285.9348 14.34217451379741
